[{"OBJECT_NAME":"STARLINK-5018","OBJECT_ID":"2022-119AV","EPOCH":"2026-03-09T22:00:04.282272","MEAN_MOTION":15.08835009,"ECCENTRICITY":0.00013169,"INCLINATION":53.2174,"RA_OF_ASC_NODE":313.4778,"ARG_OF_PERICENTER":87.5613,"MEAN_ANOMALY":272.553,"EPHEMERIS_TYPE":0,"CLASSIFICATION_TYPE":"U","NORAD_CAT_ID":53929,"ELEMENT_SET_NO":999,"REV_AT_EPOCH":19185,"BSTAR":-6.9303324e-5,"MEAN_MOTION_DOT":-1.391e-5,"MEAN_MOTION_DDOT":0},{"OBJECT_NAME":"LEMUR-2-KREMPEL-BRO1","OBJECT_ID":"2025-061G","EPOCH":"2026-03-09T22:19:45.751296","MEAN_MOTION":15.13773226,"ECCENTRICITY":0.0017497,"INCLINATION":97.5535,"RA_OF_ASC_NODE":45.5283,"ARG_OF_PERICENTER":227.946,"MEAN_ANOMALY":132.0284,"EPHEMERIS_TYPE":0,"CLASSIFICATION_TYPE":"U","NORAD_CAT_ID":63357,"ELEMENT_SET_NO":999,"REV_AT_EPOCH":5261,"BSTAR":0.00031891713,"MEAN_MOTION_DOT":5.707e-5,"MEAN_MOTION_DDOT":0}]
